name,address,latitude,longitude
가야여자중학교,부산광역시 부산진구 엄광로182번길 15-25 ,35.1475969785888,129.03649307184
감만중학교,부산광역시 남구 홍곡로 313-14 ,35.121732177521,129.089260892303
개금여자중학교,부산광역시 부산진구 백양대로136번길 75 ,35.1632381106663,129.032607975308
개림중학교,부산광역시 부산진구 백양대로300번길 46 ,35.1574234124681,129.018167244768
경남여자중학교,부산광역시 동구 초량중로 142 ,35.1238773104782,129.042595023954
광무여자중학교,부산광역시 부산진구 백양관문로 31 ,35.1620520845774,129.02979268195
남천중학교,부산광역시 남구 황령대로492번길 71 ,35.1366476922418,129.105418682711
대연중학교,부산광역시 남구 천제등로16번길 81 ,35.1319537940611,129.085054194059
대천중학교,부산광역시 남구 신선로 491 ,35.1285448480109,129.103302295983
동양중학교,부산광역시 부산진구 백양산로 96 ,35.1773022914109,129.031869579795
동평여자중학교,부산광역시 부산진구 백양순환로 119 ,35.1699513743571,129.040343806398
동평중학교,부산광역시 부산진구 백양순환로119번길 12-31 ,35.1711501937722,129.041140470895
동항중학교,부산광역시 남구 양지골로 248 ,35.1190729498177,129.085431356462
문현여자중학교,부산광역시 남구 고동골로59번길 46 ,35.1421682186398,129.068415866184
부산개성중학교,부산광역시 부산진구 엄광로 176-12 ,35.1469489874393,129.032875047644
부산국제중학교,부산광역시 부산진구 백양관문로 105-70 ,35.1672262665457,129.023452565398
부산서중학교,부산광역시 동구 홍곡남로 29 ,35.1254930274118,129.036357755203
부산중학교,부산광역시 동구 초량로40번길 29 ,35.1222230597989,129.036865773528
부산진여자중학교,부산광역시 부산진구 동성로 34 ,35.154454615988,129.069420599187
부산진중학교,부산광역시 부산진구 시민공원로 50 ,35.163690106216,129.055030032332
분포중학교,부산광역시 남구 분포로 51 ,35.1295240689083,129.114430964861
석포여자중학교,부산광역시 남구 유엔평화로126번길 63 ,35.1221149319002,129.094030080881
성동중학교,부산광역시 남구 남동천로 38 ,35.1399333923253,129.066263484098
양동여자중학교,부산광역시 부산진구 황령산로605번길 35-32 ,35.1701929015609,129.081000097654
오륙도중학교,부산광역시 남구 오륙도로 60 ,35.1040456329122,129.115109109336
용문중학교,부산광역시 남구 동명로101번길 93 ,35.1251994957803,129.106900691727
용호중학교,부산광역시 남구 동명로 185-17 ,35.1193425096724,129.116976897723
초연중학교,부산광역시 부산진구 초읍천로77번가길 9 ,35.1795863117507,129.044912813584
초읍중학교,부산광역시 부산진구 성지로94번길 71 ,35.1809606052736,129.055740440871
덕명여자중학교,부산광역시 부산진구 봉수로 13 ,35.1510804365952,129.07045186954
동의중학교,부산광역시 부산진구 진남로462번길 16 ,35.1643658494869,129.070422023064
부산동여자중학교,부산광역시 동구 망양로 773 ,35.1320519465564,129.041903124382
부산동중학교,부산광역시 부산진구 동성로30번길 36 ,35.1532695409112,129.071252703527
서면중학교,부산광역시 부산진구 가야대로747번길 53 ,35.1604873436813,129.052220685504
선화여자중학교,부산광역시 동구 초량로80번길 5 ,35.1210635047358,129.032912274757
항도중학교,부산광역시 부산진구 동성로118번길 44 ,35.1615297945096,129.067015163664
해연중학교,부산광역시 남구 진남로110번길 25 ,35.1392619710429,129.083003946501
거제여자중학교,부산광역시 연제구 금용로 43 ,35.1877619987701,129.063437887106
구서여자중학교,부산광역시 금정구 금강로453번길 26-12 ,35.2492806158212,129.085894029728
금사중학교,부산광역시 금정구 서금로 53-7 ,35.2209888886164,129.106739672704
금양중학교,부산광역시 금정구 기찰로22번길 37 ,35.2334051142962,129.09572422352
남산중학교,부산광역시 금정구 금단로 114 ,35.2598170184999,129.093699438415
남일중학교,부산광역시 동래구 온천천로531번길 49 ,35.1931222050951,129.111626113681
동래중학교,부산광역시 동래구 충렬대로181번길 109 ,35.2101604838315,129.079387284286
동신중학교,부산광역시 동래구 충렬사로51번길 38 ,35.205962743271,129.097685613523
동현중학교,부산광역시 금정구 서동로 50 ,35.2189844769432,129.09120000242
부곡여자중학교,부산광역시 금정구 가마실로 56 ,35.2231940167334,129.095575106278
부곡중학교,부산광역시 금정구 동부곡로15번길 102-20 ,35.2314365606223,129.096197676741
부산내성중학교,부산광역시 동래구 중앙대로 1297 ,35.2037036399339,129.077004491811
사직여자중학교,부산광역시 동래구 사직로 91 ,35.1942943844436,129.055334208454
사직중학교,부산광역시 동래구 쇠미로51번길 30 ,35.1994854169184,129.051413682836
안락중학교,부산광역시 동래구 온천천로 513 ,35.1916380313163,129.109257837867
여명중학교,부산광역시 동래구 여고로52번길 9 ,35.1958479869096,129.070283319316
연산중학교,부산광역시 연제구 고분로56번길 39 ,35.1848634042648,129.089023665127
연일중학교,부산광역시 연제구 고분로 138 ,35.1848218258649,129.097109928679
연제중학교,부산광역시 연제구 쌍미천로 62 ,35.1792871049004,129.089778636314
연천중학교,부산광역시 연제구 톳고개로 16 ,35.1840531531836,129.102030131848
온천중학교,부산광역시 동래구 쇠미로129번길 28 ,35.2045781662712,129.059673427392
유락여자중학교,부산광역시 동래구 금강로 51 ,35.21495031845,129.076183536865
장전중학교,부산광역시 금정구 금샘로18번길 39 ,35.2287881207255,129.077989245342
충렬중학교,부산광역시 동래구 명장로64번길 45 ,35.202952508383,129.108402728576
토현중학교,부산광역시 연제구 토현로 47 ,35.1820421009904,129.111617827325
거성중학교,부산광역시 연제구 해맞이로109번길 61 ,35.1827420675583,129.066662470532
금정중학교,부산광역시 금정구 중앙대로 2104 ,35.2711908093578,129.093760104341
동래여자중학교,부산광역시 금정구 체육공원로 20 ,35.2470423417948,129.098197198652
동해중학교,부산광역시 동래구 시실로 19-39 ,35.2169874312193,129.088920508878
부산예술중학교,부산광역시 금정구 체육공원로 20 ,35.2470423417948,129.098197198652
브니엘예술중학교,부산광역시 금정구 체육공원로 154 ,35.254853055713,129.103926382394
이사벨중학교,부산광역시 연제구 중앙대로 1197 ,35.1935341410497,129.077938035705
학산여자중학교,부산광역시 동래구 충렬사로51번길 61 ,35.2047528404452,129.096168003619
혜화여자중학교,부산광역시 동래구 명장로67번길 14-22 ,35.2045788891819,129.110946835026
가락중학교,부산광역시 강서구 가락대로 1405 ,35.1904369234745,128.903603295631
가람중학교,부산광역시 북구 낙동북로663번길 55 ,35.2043172245901,128.998879936385
경일중학교,부산광역시 강서구 명지국제6로 149 ,35.0940696237179,128.916289732248
구남중학교,부산광역시 북구 백양대로1016번길 38 ,35.195957219058,128.997862099693
구포중학교,부산광역시 북구 백양대로1016번다길 31 ,35.1949558686261,128.996494833312
금곡중학교,부산광역시 북구 효열로162번길 3 ,35.2608591476402,129.017198853531
금명중학교,부산광역시 북구 화명신도시로 210-1 ,35.2434221967348,129.012057637264
낙동중학교,부산광역시 강서구 대저로 115 ,35.2164338529477,128.96627635671
대천리중학교,부산광역시 북구 산성로 87-15 ,35.2423544097168,129.021631174393
덕문중학교,부산광역시 강서구 동선길 144 ,35.0520755987206,128.829814501458
덕천여자중학교,부산광역시 북구 의성로47번길 45-4 ,35.2176561800534,129.011580664712
덕천중학교,부산광역시 북구 만덕대로65번길 50 ,35.2142340165897,129.011813439782
덕포여자중학교,부산광역시 사상구 사상로310번길 110 ,35.1703693467894,128.98615771709
동주중학교,부산광역시 사상구 주례로 107 ,35.1459029653326,129.003961009499
만덕중학교,부산광역시 북구 만덕1로 52 ,35.2149160162535,129.031283651957
명지중학교,부산광역시 강서구 명지국제6로318번길 54 ,35.1019389245782,128.925582823025
명진중학교,부산광역시 북구 학사로 192 ,35.2397777078334,129.009700119007
명호중학교,부산광역시 강서구 명지오션시티2로 100 ,35.080531231776,128.898709773901
모동중학교,부산광역시 사상구 모라로192번길 51 ,35.1849621333867,129.003087199121
모라중학교,부산광역시 사상구 백양대로 936 ,35.1906711982981,128.992445281673
백양중학교,부산광역시 북구 상리로 70 ,35.2071274738595,129.040561906412
신덕중학교,부산광역시 북구 함박봉로140번가길 27 ,35.2031697903196,129.030802931394
신호중학교,부산광역시 강서구 신호산단2로 76 ,35.0824142569904,128.877092368508
양덕여자중학교,부산광역시 북구 시랑로21번길 178 ,35.2042128047371,129.0134063059
엄궁중학교,부산광역시 사상구 대동로 56 ,35.1348927024866,128.974858673819
용수중학교,부산광역시 북구 금곡대로229번길 88 ,35.23024847769,129.007761442931
주감중학교,부산광역시 사상구 백양대로 530 ,35.1564451010229,128.995461515191
주례여자중학교,부산광역시 사상구 가야대로306번길 55 ,35.1489478658757,129.00737785349
주례중학교,부산광역시 사상구 가야대로378번길 68 ,35.1484767008536,129.014170602449
지사중학교,부산광역시 강서구 과학산단로306번길 33 ,35.1521968610193,128.835322866037
학장중학교,부산광역시 사상구 대동로140번길 60 ,35.1379034680087,128.982824270846
화명중학교,부산광역시 북구 금곡대로186번길 13 ,35.2263915538214,129.011686603195
화신중학교,부산광역시 북구 산성로12번길 22 ,35.2386448485594,129.014539515793
녹산중학교,부산광역시 강서구 낙동남로 659 ,35.118148207295,128.8878835782
대저중학교,부산광역시 강서구 공항로811번가길 46 ,35.1775866767524,128.956293958325
신라중학교,부산광역시 사상구 백양대로700번길 35-8 ,35.1700623084646,128.993063407141
송정중학교,부산광역시 강서구 가락대로 230-72 ,35.1064447990582,128.84169460034
감천중학교,부산광역시 사하구 감천로73번길 60 ,35.0922105050913,129.000110117459
경남중학교,부산광역시 서구 까치고개로229번길 7 ,35.1011116290963,129.020782133571
다대중학교,부산광역시 사하구 다대로554번길 33 ,35.057376492479,128.968254460479
다선중학교,부산광역시 사하구 다대낙조2길 36 ,35.0527172913278,128.963781760765
다송중학교,부산광역시 사하구 다송로 55 ,35.0643498862778,128.984786184107
당리중학교,부산광역시 사하구 낙동대로356번길 22 ,35.1022329220387,128.980882944765
두송중학교,부산광역시 사하구 다송로 76 ,35.0606593201205,128.982953064948
부산남중학교,부산광역시 영도구 절영로73번길 7 ,35.0882134985997,129.040241427431
부산대신중학교,부산광역시 서구 대신로109번길 10 ,35.1186453378198,129.013583859674
부산여자중학교,부산광역시 서구 보수대로 282-23 ,35.1205619514069,129.014457160117
부산영선중학교,부산광역시 영도구 영상길 83 ,35.0862671884767,129.044666909062
부산중앙여자중학교,부산광역시 서구 대신로 59-32 ,35.1158467273797,129.011033907131
부산체육중학교,부산광역시 영도구 중리북로21번길 5 ,35.072054961404,129.064033975307
사하중학교,부산광역시 사하구 낙동대로302번길 35 ,35.1012478631008,128.982672488752
신선중학교,부산광역시 영도구 복지관길 40 ,35.0803183776544,129.045851252951
영도제일중학교,부산광역시 영도구 중리로 64 ,35.0775918805414,129.068864318425
장림여자중학교,부산광역시 사하구 두송로 64 ,35.0786237804293,128.981222687048
장평중학교,부산광역시 사하구 사하로 134-1 ,35.0939679552934,128.994468452955
초장중학교,부산광역시 서구 해돋이로 205 ,35.0947712497728,129.018221847518
태종대중학교,부산광역시 영도구 함지로79번길 9 ,35.0736739612172,129.064920455253
하남중학교,부산광역시 사하구 하신번영로 206 ,35.0996234691188,128.958925696848
하단중학교,부산광역시 사하구 하신번영로380번길 88 ,35.1109414883684,128.95958901163
건국중학교,부산광역시 사하구 승학로17번길 76-8 ,35.109528077097,128.969616396909
남도여자중학교,부산광역시 영도구 남도여중길 130 ,35.08706767654,129.045544354579
대동중학교,부산광역시 사하구 을숙도대로709번길 27 ,35.0873647967419,128.984239087976
대신여자중학교,부산광역시 서구 보동길 268 ,35.1134646595408,129.024805279248
덕원중학교,부산광역시 중구 망양로 356 ,35.1088542935771,129.032446718094
동주여자중학교,부산광역시 사하구 사리로8번길 28 ,35.1007053432659,129.001363771273
삼성중학교,부산광역시 사하구 감천로43번길 45-2 ,35.0945578779909,128.9991612319
송도중학교,부산광역시 서구 해양로 15 ,35.08289192709,129.022421982412
영남중학교,부산광역시 사하구 다대로277번길 100 ,35.0748026708281,128.982599861175
해동중학교,부산광역시 영도구 절영로490번길 8-22 ,35.0696707168839,129.069638001411
광안중학교,부산광역시 수영구 연수로310번길 127 ,35.1682231645301,129.10491951903
기장중학교,부산광역시 기장군 기장읍 읍내로 120 ,35.2448818739564,129.218314916368
대청중학교,부산광역시 기장군 기장읍 차성서로 3 ,35.2333144022506,129.212816903745
동백중학교,부산광역시 해운대구 좌동순환로468번가길 97 ,35.1658453754025,129.174344739423
망미중학교,부산광역시 수영구 망미배산로 102 ,35.1756624234963,129.098587169018
모전중학교,부산광역시 기장군 정관읍 정관1로 9 ,35.3380990487962,129.162479872983
반송여자중학교,부산광역시 해운대구 운봉길 113 ,35.232976729019,129.144439675641
반송중학교,부산광역시 해운대구 반송로911번길 59 ,35.2349363696648,129.151761719717
반안중학교,부산광역시 해운대구 명장로67번길 40-32 ,35.2033770276265,129.112315767508
반여중학교,부산광역시 해운대구 재반로256번길 57-12 ,35.1999388959911,129.136426171904
부산수영중학교,부산광역시 수영구 호암로38 ,35.1567973774062,129.109724305996
부산중앙중학교,부산광역시 기장군 정관읍 정관덕산길 73 ,35.3225630909235,129.187591173763
부흥중학교,부산광역시 해운대구 좌동순환로 226 ,35.1751850854094,129.178813429301
상당중학교,부산광역시 해운대구 대천로103번길 48 ,35.1789337325041,129.17613733844
센텀중학교,부산광역시 해운대구 센텀북대로 32 ,35.1753963559461,129.123758590492
신곡중학교,부산광역시 해운대구 좌동순환로 316 ,35.1681464634818,129.181877319651
신도중학교,부산광역시 해운대구 좌동순환로 50 ,35.1705857850897,129.167440518215
신정중학교,부산광역시 기장군 정관읍 정관3로 44 ,35.3290846271971,129.16889999051
양운중학교,부산광역시 해운대구 좌동순환로99번길 7 ,35.1754319115956,129.166696453136
인지중학교,부산광역시 해운대구 반여로 142 ,35.2040509193479,129.125589737352
일광중학교,부산광역시 기장군 일광면 해빛3로 99 ,35.2654825847641,129.220928174539
장산중학교,부산광역시 해운대구 선수촌로 47 ,35.1987253720136,129.11771181812
재송여자중학교,부산광역시 해운대구 재반로84번길 148 ,35.1898428069774,129.131081400129
재송중학교,부산광역시 해운대구 재반로165번길 16 ,35.1931618859313,129.128546983471
정관중학교,부산광역시 기장군 정관읍 정관로 531 ,35.3239025064188,129.172971360935
한바다중학교,부산광역시 수영구 광안로21번가길 57 ,35.1572924115621,129.117611853193
해강중학교,부산광역시 해운대구 해운대해변로 17 ,35.1640135140325,129.13570651793
동수영중학교,부산광역시 수영구 광서로 74 ,35.1645689772671,129.103660228011
동아중학교,부산광역시 수영구 호암로 55 ,35.1567809228332,129.106983979426
장안중학교,부산광역시 기장군 장안읍 좌천2길 43 ,35.3145046642382,129.240745302742
해운대여자중학교,부산광역시 해운대구 우동1로85번길 25 ,35.1680514295636,129.153566530749
해운대중학교,부산광역시 해운대구 우동2로30번길 99 ,35.1717738481975,129.161961577845
